QIANFAN-33              
1 61566U 24185Q   25282.63294817  .00000467  00000+0  32879-3 0  9991
2 61566  88.9740  85.9536 0007679 151.4696 208.6903 13.96467381 60214
QIANFAN-34              
1 61567U 24185R   25282.57568169  .00000501  00000+0  31881-3 0  9990
2 61567  88.9718  85.6088 0006602 155.8207 204.3284 14.02219242 60360
QIANFAN-35              
1 61568U 24185S   25282.57562009  .00001086  00000+0  43354-3 0  9995
2 61568  88.9747  84.4089 0008308 126.4133 233.7828 14.27801852 61023
QIANFAN-36              
1 61569U 24185T   25282.59764071  .00000145  00000+0  19064-3 0  9997
2 61569  88.9727  87.7254 0004850 213.9400 146.1444 13.55561883 59237
QIANFAN-37              
1 62238U 24232B   25282.63043931  .00000128  00000+0  17921-3 0  9995
2 62238  89.0008  47.7881 0001122 101.4857 258.6420 13.50969126 90519
QIANFAN-38              
1 62239U 24232C   25282.58109678  .00000117  00000+0  16275-3 0  9990
2 62239  89.0014  47.7046 0014942  27.6808 332.5136 13.50977702 90569
QIANFAN-39              
1 62240U 24232D   25282.60846443  .00000646  00000+0  26819-3 0  9995
2 62240  89.0013  44.6291 0014031 290.5197  69.4490 14.25281405 92257
QIANFAN-40              
1 62241U 24232E   25282.61398265  .00000132  00000+0  18571-3 0  9997
2 62241  89.0043  47.2679 0014210  35.7344 324.4756 13.50977320 90939
